TRANSIT 16 [?]          
1 02807U 67048A   22278.88784362  .00000138  00000+0  19948-3 0  9994
2 02807  89.6623  32.6631 0018844 237.9581 238.4137 13.50328981725679
TRANSIT 17 [?]          
1 02965U 67092A   22279.14233465  .00000141  00000+0  19312-3 0  9990
2 02965  89.2306 114.9000 0048337  16.4362 105.8482 13.53040699714026
TRANSIT 18 [?]          
1 03133U 68012A   22279.03770747  .00000149  00000+0  21371-3 0  9994
2 03133  90.0015 271.6356 0073283 301.9298 120.9670 13.51166832688533
NNSS 19 [?]             
1 04507U 70067A   22278.85445183  .00000216  00000+0  28895-3 0  9998
2 04507  89.9269 238.4864 0174431  64.6738 297.2366 13.50844277565451
NNSS O-20 [?]           
1 06909U 73081A   22279.00360167  .00000273  00000+0  27332-3 0  9999
2 06909  89.8136 275.3451 0155239 326.5672  32.5761 13.70701906644433
TRANSAT [?]             
1 10457U 77106A   22279.15753300  .00000105  00000+0  15233-3 0  9996
2 10457  89.6728 118.9537 0023734 311.0528 169.5934 13.48689919210808
NOVA I [?]              
1 12458U 81044A   22278.78219527  .00000128  00000+0  28164-3 0  9993
2 12458  89.8791 106.4654 0016210  75.3951 295.3114 13.23074865997931
NOVA 3 [?]              
1 15362U 84110A   22279.16889422  .00000116  00000+0  25733-3 0  9993
2 15362  90.0988  68.0055 0030299 298.5915 235.0768 13.22841789833414
OSCAR 30 [?]            
1 15935U 85066A   22278.90144225  .00000135  00000+0  22489-3 0  9992
2 15935  90.1745  79.8172 0170272 126.5732   0.0174 13.35767547809142
OSCAR 24 [?]            
1 15936U 85066B   22278.83966869  .00000130  00000+0  21730-3 0  9994
2 15936  90.1721  71.7500 0170734 132.4704   0.0450 13.35627804811276
POLAR BEAR [?]          
1 17070U 86088A   22278.89905837  .00000146  00000+0  14072-3 0  9992
2 17070  89.5692 232.5488 0040438  33.0825  20.8652 13.74882420799858
OSCAR 27 [?]            
1 18361U 87080A   22278.87682657  .00000109  00000+0  16832-3 0  9994
2 18361  90.3383  37.8927 0102914 318.0437  41.2858 13.44575748719155
OSCAR 29 [?]            
1 18362U 87080B   22278.89504660  .00000110  00000+0  17042-3 0  9990
2 18362  90.3395  38.2312 0105137 338.7359 139.8686 13.44164692718732
OSCAR 23 [?]            
1 19070U 88033A   22278.43177520  .00000069  00000+0  12143-3 0  9997
2 19070  90.3322 340.3059 0190233 177.3774 194.1813 13.27532339668045
OSCAR 32 [?]            
1 19071U 88033B   22278.40992675  .00000100  00000+0  18304-3 0  9992
2 19071  90.3325 340.3929 0188951 165.3266 206.4465 13.27712041668143
NOVA 11 [?]             
1 19223U 88052A   22278.84827645  .00000078  00000+0  16447-3 0  9994
2 19223  89.9713  80.5800 0030073 344.5534 140.6803 13.22752275655608
OSCAR 25 [?]            
1 19419U 88074A   22278.83133674  .00000104  00000+0  16580-3 0  9994
2 19419  90.0125  17.9534 0095068 327.0876 147.5537 13.42305345670244
OSCAR 31 [?]            
1 19420U 88074B   22279.19752579  .00000099  00000+0  15669-3 0  9997
2 19420  90.0135  18.1412 0093104 320.1159  58.8233 13.42315765670673
